CCSDS_OMM_VERS = 2.0
CREATION_DATE  = 
ORIGINATOR     = 

OBJECT_NAME    = SL-14 R/B
OBJECT_ID      = 1991-042B
CENTER_NAME    = EARTH
REF_FRAME      = TEME
TIME_SYSTEM    = UTC
MEAN_ELEMENT_THEORY = SGP/SGP4

EPOCH          = 2026-02-17T11:59:48.239232
MEAN_MOTION    = 14.81808656
ECCENTRICITY   = .0015891
INCLINATION    = 82.4897
RA_OF_ASC_NODE = 239.1185
ARG_OF_PERICENTER = 311.0762
MEAN_ANOMALY   = 48.9079

EPHEMERIS_TYPE = 0
CLASSIFICATION_TYPE = U
NORAD_CAT_ID   = 21423
ELEMENT_SET_NO = 999
REV_AT_EPOCH   = 85008
BSTAR          = .49996E-4
MEAN_MOTION_DOT = .418E-5
MEAN_MOTION_DDOT = 0

CCSDS_OMM_VERS = 2.0
CREATION_DATE  = 
ORIGINATOR     = 

OBJECT_NAME    = ERS-1
OBJECT_ID      = 1991-050A
CENTER_NAME    = EARTH
REF_FRAME      = TEME
TIME_SYSTEM    = UTC
MEAN_ELEMENT_THEORY = SGP/SGP4

EPOCH          = 2026-02-17T11:16:06.648096
MEAN_MOTION    = 14.39432798
ECCENTRICITY   = .0030872
INCLINATION    = 98.7893
RA_OF_ASC_NODE = 66.1954
ARG_OF_PERICENTER = 261.9869
MEAN_ANOMALY   = 97.7814

EPHEMERIS_TYPE = 0
CLASSIFICATION_TYPE = U
NORAD_CAT_ID   = 21574
ELEMENT_SET_NO = 999
REV_AT_EPOCH   = 81282
BSTAR          = .12189E-3
MEAN_MOTION_DOT = .335E-5
MEAN_MOTION_DDOT = 0

CCSDS_OMM_VERS = 2.0
CREATION_DATE  = 
ORIGINATOR     = 

OBJECT_NAME    = ARIANE 40 R/B
OBJECT_ID      = 1991-050F
CENTER_NAME    = EARTH
REF_FRAME      = TEME
TIME_SYSTEM    = UTC
MEAN_ELEMENT_THEORY = SGP/SGP4

EPOCH          = 2026-02-17T03:39:34.387776
MEAN_MOTION    = 14.42878326
ECCENTRICITY   = .00041826
INCLINATION    = 98.2058
RA_OF_ASC_NODE = 101.1552
ARG_OF_PERICENTER = 125.9888
MEAN_ANOMALY   = 234.1691

EPHEMERIS_TYPE = 0
CLASSIFICATION_TYPE = U
NORAD_CAT_ID   = 21610
ELEMENT_SET_NO = 999
REV_AT_EPOCH   = 81603
BSTAR          = .11585613E-3
MEAN_MOTION_DOT = .345E-5
MEAN_MOTION_DDOT = 0

CCSDS_OMM_VERS = 2.0
CREATION_DATE  = 
ORIGINATOR     = 

OBJECT_NAME    = INTERCOSMOS 25
OBJECT_ID      = 1991-086A
CENTER_NAME    = EARTH
REF_FRAME      = TEME
TIME_SYSTEM    = UTC
MEAN_ELEMENT_THEORY = SGP/SGP4

EPOCH          = 2026-02-17T06:22:06.739392
MEAN_MOTION    = 12.11942510
ECCENTRICITY   = .1486953
INCLINATION    = 82.6084
RA_OF_ASC_NODE = 322.3503
ARG_OF_PERICENTER = 160.9300
MEAN_ANOMALY   = 205.4174

EPHEMERIS_TYPE = 0
CLASSIFICATION_TYPE = U
NORAD_CAT_ID   = 21819
ELEMENT_SET_NO = 999
REV_AT_EPOCH   = 49421
BSTAR          = .2143E-3
MEAN_MOTION_DOT = .1118E-4
MEAN_MOTION_DDOT = 0

CCSDS_OMM_VERS = 2.0
CREATION_DATE  = 
ORIGINATOR     = 

OBJECT_NAME    = SL-8 R/B
OBJECT_ID      = 1992-008B
CENTER_NAME    = EARTH
REF_FRAME      = TEME
TIME_SYSTEM    = UTC
MEAN_ELEMENT_THEORY = SGP/SGP4

EPOCH          = 2026-02-17T02:11:12.657408
MEAN_MOTION    = 13.75970098
ECCENTRICITY   = .00343417
INCLINATION    = 82.9251
RA_OF_ASC_NODE = 283.1034
ARG_OF_PERICENTER = 190.1176
MEAN_ANOMALY   = 334.6906

EPHEMERIS_TYPE = 0
CLASSIFICATION_TYPE = U
NORAD_CAT_ID   = 21876
ELEMENT_SET_NO = 999
REV_AT_EPOCH   = 70658
BSTAR          = .54654569E-4
MEAN_MOTION_DOT = .68E-6
MEAN_MOTION_DDOT = 0

CCSDS_OMM_VERS = 2.0
CREATION_DATE  = 
ORIGINATOR     = 

OBJECT_NAME    = SL-8 R/B
OBJECT_ID      = 1992-020B
CENTER_NAME    = EARTH
REF_FRAME      = TEME
TIME_SYSTEM    = UTC
MEAN_ELEMENT_THEORY = SGP/SGP4

EPOCH          = 2026-02-17T11:21:03.284352
MEAN_MOTION    = 13.75546753
ECCENTRICITY   = .0028709
INCLINATION    = 82.9339
RA_OF_ASC_NODE = 168.7667
ARG_OF_PERICENTER = 356.9499
MEAN_ANOMALY   = 75.3491

EPHEMERIS_TYPE = 0
CLASSIFICATION_TYPE = U
NORAD_CAT_ID   = 21938
ELEMENT_SET_NO = 999
REV_AT_EPOCH   = 69835
BSTAR          = .82635E-4
MEAN_MOTION_DOT = .95E-6
MEAN_MOTION_DDOT = 0

CCSDS_OMM_VERS = 2.0
CREATION_DATE  = 
ORIGINATOR     = 

OBJECT_NAME    = USA 81
OBJECT_ID      = 1992-023A
CENTER_NAME    = EARTH
REF_FRAME      = TEME
TIME_SYSTEM    = UTC
MEAN_ELEMENT_THEORY = SGP/SGP4

EPOCH          = 2026-02-17T07:55:25.258944
MEAN_MOTION    = 14.32360533
ECCENTRICITY   = .0002764
INCLINATION    = 85.0116
RA_OF_ASC_NODE = 143.1818
ARG_OF_PERICENTER = 95.8944
MEAN_ANOMALY   = 264.2563

EPHEMERIS_TYPE = 0
CLASSIFICATION_TYPE = U
NORAD_CAT_ID   = 21949
ELEMENT_SET_NO = 999
REV_AT_EPOCH   = 9187
BSTAR          = .68575E-4
MEAN_MOTION_DOT = .205E-5
MEAN_MOTION_DDOT = 0

CCSDS_OMM_VERS = 2.0
CREATION_DATE  = 
ORIGINATOR     = 

OBJECT_NAME    = COSMOS 2219
OBJECT_ID      = 1992-076A
CENTER_NAME    = EARTH
REF_FRAME      = TEME
TIME_SYSTEM    = UTC
MEAN_ELEMENT_THEORY = SGP/SGP4

EPOCH          = 2026-02-17T10:21:05.051808
MEAN_MOTION    = 14.14078645
ECCENTRICITY   = .0019929
INCLINATION    = 71.0582
RA_OF_ASC_NODE = 60.4189
ARG_OF_PERICENTER = 234.3629
MEAN_ANOMALY   = 125.5638

EPHEMERIS_TYPE = 0
CLASSIFICATION_TYPE = U
NORAD_CAT_ID   = 22219
ELEMENT_SET_NO = 999
REV_AT_EPOCH   = 71551
BSTAR          = .1399E-3
MEAN_MOTION_DOT = .22E-5
MEAN_MOTION_DDOT = 0

CCSDS_OMM_VERS = 2.0
CREATION_DATE  = 
ORIGINATOR     = 

OBJECT_NAME    = SL-16 R/B
OBJECT_ID      = 1992-076B
CENTER_NAME    = EARTH
REF_FRAME      = TEME
TIME_SYSTEM    = UTC
MEAN_ELEMENT_THEORY = SGP/SGP4

EPOCH          = 2026-02-17T11:58:45.844608
MEAN_MOTION    = 14.16854881
ECCENTRICITY   = .0011179
INCLINATION    = 70.9974
RA_OF_ASC_NODE = 230.9037
ARG_OF_PERICENTER = 133.2090
MEAN_ANOMALY   = 257.9237

EPHEMERIS_TYPE = 0
CLASSIFICATION_TYPE = U
NORAD_CAT_ID   = 22220
ELEMENT_SET_NO = 999
REV_AT_EPOCH   = 71897
BSTAR          = -.54452E-4
MEAN_MOTION_DOT = -.157E-5
MEAN_MOTION_DDOT = 0

CCSDS_OMM_VERS = 2.0
CREATION_DATE  = 
ORIGINATOR     = 

OBJECT_NAME    = COSMOS 2221
OBJECT_ID      = 1992-080A
CENTER_NAME    = EARTH
REF_FRAME      = TEME
TIME_SYSTEM    = UTC
MEAN_ELEMENT_THEORY = SGP/SGP4

EPOCH          = 2026-02-17T04:07:55.783488
MEAN_MOTION    = 14.96120543
ECCENTRICITY   = .00127971
INCLINATION    = 82.5044
RA_OF_ASC_NODE = 298.7330
ARG_OF_PERICENTER = 261.9986
MEAN_ANOMALY   = 97.9784

EPHEMERIS_TYPE = 0
CLASSIFICATION_TYPE = U
NORAD_CAT_ID   = 22236
ELEMENT_SET_NO = 999
REV_AT_EPOCH   = 77772
BSTAR          = .18719755E-3
MEAN_MOTION_DOT = .2134E-4
MEAN_MOTION_DDOT = 0

CCSDS_OMM_VERS = 2.0
CREATION_DATE  = 
ORIGINATOR     = 

OBJECT_NAME    = SL-16 R/B
OBJECT_ID      = 1992-093B
CENTER_NAME    = EARTH
REF_FRAME      = TEME
TIME_SYSTEM    = UTC
MEAN_ELEMENT_THEORY = SGP/SGP4

EPOCH          = 2026-02-17T09:16:34.115808
MEAN_MOTION    = 14.15444178
ECCENTRICITY   = .0005491
INCLINATION    = 71.0208
RA_OF_ASC_NODE = 46.8874
ARG_OF_PERICENTER = 315.8444
MEAN_ANOMALY   = 44.2240

EPHEMERIS_TYPE = 0
CLASSIFICATION_TYPE = U
NORAD_CAT_ID   = 22285
ELEMENT_SET_NO = 999
REV_AT_EPOCH   = 71028
BSTAR          = .18321E-3
MEAN_MOTION_DOT = .31E-5
MEAN_MOTION_DDOT = 0

CCSDS_OMM_VERS = 2.0
CREATION_DATE  = 
ORIGINATOR     = 

OBJECT_NAME    = COSMOS 2228
OBJECT_ID      = 1992-094A
CENTER_NAME    = EARTH
REF_FRAME      = TEME
TIME_SYSTEM    = UTC
MEAN_ELEMENT_THEORY = SGP/SGP4

EPOCH          = 2026-02-17T12:52:04.973088
MEAN_MOTION    = 14.97091996
ECCENTRICITY   = .0018406
INCLINATION    = 82.5147
RA_OF_ASC_NODE = 256.6102
ARG_OF_PERICENTER = 14.3601
MEAN_ANOMALY   = 345.8141

EPHEMERIS_TYPE = 0
CLASSIFICATION_TYPE = U
NORAD_CAT_ID   = 22286
ELEMENT_SET_NO = 999
REV_AT_EPOCH   = 77304
BSTAR          = .17419E-3
MEAN_MOTION_DOT = .2041E-4
MEAN_MOTION_DDOT = 0

