SL-14 R/B               
1 21423U 91042B   26048.49986388  .00000418  00000+0  49996-4 0  9996
2 21423  82.4897 239.1185 0015891 311.0762  48.9079 14.81808656850080
ERS-1                   
1 21574U 91050A   26048.46952139  .00000335  00000+0  12189-3 0  9997
2 21574  98.7893  66.1954 0030872 261.9869  97.7814 14.39432798812824
ARIANE 40 R/B           
1 21610U 91050F   26048.15248134  .00000345  00000+0  11586-3 0  9998
2 21610  98.2058 101.1552 0004182 125.9888 234.1691 14.42878326816034
INTERCOSMOS 25          
1 21819U 91086A   26048.26535578  .00001118  00000+0  21430-3 0  9999
2 21819  82.6084 322.3503 1486953 160.9300 205.4174 12.11942510494213
SL-8 R/B                
1 21876U 92008B   26048.09111872  .00000068  00000+0  54655-4 0  9994
2 21876  82.9251 283.1034 0034341 190.1176 334.6906 13.75970098706580
SL-8 R/B                
1 21938U 92020B   26048.47295468  .00000095  00000+0  82635-4 0  9992
2 21938  82.9339 168.7667 0028709 356.9499  75.3491 13.75546753698357
USA 81                  
1 21949U 92023A   26048.33015346  .00000205  00000+0  68575-4 0  9997
2 21949  85.0116 143.1818 0002764  95.8944 264.2563 14.32360533 91875
COSMOS 2219             
1 22219U 92076A   26048.43130847  .00000220  00000+0  13990-3 0  9998
2 22219  71.0582  60.4189 0019929 234.3629 125.5638 14.14078645715517
SL-16 R/B               
1 22220U 92076B   26048.49914172 -.00000157  00000+0 -54452-4 0  9997
2 22220  70.9974 230.9037 0011179 133.2090 257.9237 14.16854881718970
COSMOS 2221             
1 22236U 92080A   26048.17217342  .00002134  00000+0  18720-3 0  9991
2 22236  82.5044 298.7330 0012797 261.9986  97.9784 14.96120543777728
SL-16 R/B               
1 22285U 92093B   26048.38650597  .00000310  00000+0  18321-3 0  9996
2 22285  71.0208  46.8874 0005491 315.8444  44.2240 14.15444178710287
COSMOS 2228             
1 22286U 92094A   26048.53616867  .00002041  00000+0  17419-3 0  9997
2 22286  82.5147 256.6102 0018406  14.3601 345.8141 14.97091996773047
